NORAD_CAT_ID,OBJECT_NAME,OBJECT_TYPE,EPOCH,MEAN_MOTION,ECCENTRICITY,INCLINATION,RA_OF_ASC_NODE,ARG_OF_PERICENTER,MEAN_ANOMALY,BSTAR,MEAN_MOTION_DOT,MEAN_MOTION_DDOT,TLE_LINE0,TLE_LINE1,TLE_LINE2,SEMIMAJOR_AXIS,PERIOD,APOGEE,PERIGEE,DECAYED
52459.0,STARLINK-3856,PAYLOAD,2023-07-28 07:05:30,15.08837711,9.45e-05,53.2167,28.0503,84.4702,275.6398,3.0371e-05,1.96e-06,0.0,0 STARLINK-3856,1 52459U 22049J   23209.29549719  .00000196  00000-0  30371-4 0  9998,2 52459  53.2167  28.0503 0000945  84.4702 275.6398 15.08837711 68175,6917.887,95.438,540.406,539.099,0.0
52459.0,STARLINK-3856,PAYLOAD,2023-07-29 05:20:54,15.08842302,0.0001015,53.2167,23.8866,91.7506,268.3603,0.00010857,1.441e-05,0.0,0 STARLINK-3856,1 52459U 22049J   23210.22285103  .00001441  00000-0  10857-3 0  9997,2 52459  53.2167  23.8866 0001015  91.7506 268.3603 15.08842302 68318,6917.873,95.437,540.441,539.036,0.0
52459.0,STARLINK-3856,PAYLOAD,2023-07-29 18:03:59,15.088325,9.68e-05,53.2169,21.5081,92.8612,267.2491,0.0002441,3.598e-05,0.0,0 STARLINK-3856,1 52459U 22049J   23210.75277515  .00003598  00000-0  24410-3 0  9998,2 52459  53.2169  21.5081 0000968  92.8612 267.2491 15.08832500 68390,6917.903,95.438,540.438,539.099,0.0
52459.0,STARLINK-3856,PAYLOAD,2023-07-31 16:10:10,15.08840465,0.000106,53.2172,12.8847,91.362,268.7494,2.2159e-05,6.5e-07,0.0,0 STARLINK-3856,1 52459U 22049J   23212.67373647  .00000065  00000-0  22159-4 0  9999,2 52459  53.2172  12.8847 0001060  91.3620 268.7494 15.08840465 68684,6917.879,95.438,540.477,539.011,0.0
52459.0,STARLINK-3856,PAYLOAD,2023-08-01 17:36:19,15.0887847,6.21e-05,53.2173,8.1267,86.4294,273.6769,-0.00051342,-8.458e-05,0.0,0 STARLINK-3856,1 52459U 22049J   23213.73356410 -.00008458  00000-0 -51342-3 0  9997,2 52459  53.2173   8.1267 0000621  86.4294 273.6769 15.08878470 68848,6917.763,95.435,540.057,539.198,0.0
52459.0,STARLINK-3856,PAYLOAD,2023-08-01 20:47:07,15.08840814,9.6e-05,53.2175,7.5315,91.6346,268.4756,7.3276e-05,8.79e-06,0.0,0 STARLINK-3856,1 52459U 22049J   23213.86605667  .00000879  00000-0  73276-4 0  9990,2 52459  53.2175   7.5315 0000960  91.6346 268.4756 15.08840814 68860,6917.878,95.438,540.407,539.079,0.0
52459.0,STARLINK-3856,PAYLOAD,2023-08-03 10:56:22,15.08839098,9.47e-05,53.2175,0.3948,92.752,267.358,1.1067e-05,-1.12e-06,0.0,0 STARLINK-3856,1 52459U 22049J   23215.45582139 -.00000112  00000-0  11067-4 0  9996,2 52459  53.2175   0.3948 0000947  92.7520 267.3580 15.08839098 69107,6917.883,95.438,540.403,539.093,0.0
52459.0,STARLINK-3856,PAYLOAD,2023-08-03 17:17:54,15.08844943,9.18e-05,53.2176,359.2054,91.1973,268.9124,5.847e-05,6.43e-06,0.0,0 STARLINK-3856,1 52459U 22049J   23215.72077527  .00000643  00000-0  58470-4 0  9993,2 52459  53.2176 359.2054 0000918  91.1973 268.9124 15.08844943 69145,6917.865,95.437,540.365,539.095,0.0
52459.0,STARLINK-3856,PAYLOAD,2023-08-04 09:11:47,15.08829262,7.83e-05,53.2176,356.2321,102.3991,257.7089,-1.8694e-05,-5.85e-06,0.0,0 STARLINK-3856,1 52459U 22049J   23216.38318818 -.00000585  00000-0 -18694-4 0  9998,2 52459  53.2176 356.2321 0000783 102.3991 257.7089 15.08829262 69248,6917.913,95.438,540.32,539.237,0.0
52459.0,STARLINK-3856,PAYLOAD,2023-08-04 15:33:19,15.08838138,9.91e-05,53.2173,355.0435,78.3445,281.7659,-5.324e-05,-1.135e-05,0.0,0 STARLINK-3856,1 52459U 22049J   23216.64814589 -.00001135  00000-0 -53240-4 0  9991,2 52459  53.2173 355.0435 0000991  78.3445 281.7659 15.08838138 69281,6917.886,95.438,540.437,539.066,0.0
52459.0,STARLINK-3856,PAYLOAD,2023-08-05 09:02:33,15.0884156,0.0001001,53.2174,351.7722,69.2782,290.8318,9.5482e-05,1.232e-05,0.0,0 STARLINK-3856,1 52459U 22049J   23217.37677788  .00001232  00000-0  95482-4 0  9990,2 52459  53.2174 351.7722 0001001  69.2782 290.8318 15.08841560 69398,6917.876,95.437,540.433,539.048,0.0
52459.0,STARLINK-3856,PAYLOAD,2023-08-05 15:24:05,15.08852411,0.0001331,53.2173,350.5843,67.0775,293.0357,0.0002178,3.181e-05,0.0,0 STARLINK-3856,1 52459U 22049J   23217.64172815  .00003181  00000-0  21780-3 0  9995,2 52459  53.2173 350.5843 0001331  67.0775 293.0357 15.08852411 69432,6917.842,95.437,540.628,538.787,0.0
52459.0,STARLINK-3856,PAYLOAD,2023-08-06 08:53:23,15.08806615,8.99e-05,53.2177,347.3123,54.3053,305.8022,-0.00012785,-2.32e-05,0.0,0 STARLINK-3856,1 52459U 22049J   23218.37040746 -.00002320  00000-0 -12785-3 0  9994,2 52459  53.2177 347.3123 0000899  54.3053 305.8022 15.08806615 69545,6917.982,95.44,540.469,539.226,0.0
52459.0,STARLINK-3856,PAYLOAD,2023-08-06 18:25:41,15.08820438,0.0001014,53.2184,345.5256,101.0051,259.1055,-8.5404e-05,-1.646e-05,0.0,0 STARLINK-3856,1 52459U 22049J   23218.76784416 -.00001646  00000-0 -85404-4 0  9995,2 52459  53.2184 345.5256 0001014 101.0051 259.1055 15.08820438 69601,6917.94,95.439,540.507,539.104,0.0
52459.0,STARLINK-3856,PAYLOAD,2023-08-07 08:44:09,15.08833534,9.59e-05,53.2176,342.8503,99.661,260.449,-0.00012737,-2.314e-05,0.0,0 STARLINK-3856,1 52459U 22049J   23219.36399688 -.00002314  00000-0 -12737-3 0  9996,2 52459  53.2176 342.8503 0000959  99.6610 260.4490 15.08833534 69695,6917.9,95.438,540.429,539.102,0.0
52459.0,STARLINK-3856,PAYLOAD,2023-08-07 15:05:41,15.08843505,9.41e-05,53.2172,341.6621,94.2312,265.8788,9.3224e-05,1.196e-05,0.0,0 STARLINK-3856,1 52459U 22049J   23219.62895313  .00001196  00000-0  93224-4 0  9997,2 52459  53.2172 341.6621 0000941  94.2312 265.8788 15.08843505 69733,6917.87,95.437,540.386,539.084,0.0
52459.0,STARLINK-3856,PAYLOAD,2023-08-08 14:56:28,15.0886034,9.11e-05,53.217,337.2018,99.7284,260.3811,0.00074296,0.00011563,0.0,0 STARLINK-3856,1 52459U 22049J   23220.62255229  .00011563  00000-0  74296-3 0  9991,2 52459  53.2170 337.2018 0000911  99.7284 260.3811 15.08860340 69886,6917.818,95.436,540.313,539.053,0.0
52459.0,STARLINK-3856,PAYLOAD,2023-08-09 14:47:15,15.08848549,8.24e-05,53.2173,332.7407,95.4678,264.6409,9.0848e-05,1.159e-05,0.0,0 STARLINK-3856,1 52459U 22049J   23221.61614921  .00001159  00000-0  90848-4 0  9991,2 52459  53.2173 332.7407 0000824  95.4678 264.6409 15.08848549 70030,6917.854,95.437,540.289,539.149,0.0
52459.0,STARLINK-3856,PAYLOAD,2023-08-10 16:13:24,15.08853958,8.57e-05,53.2166,327.9839,86.1881,273.9209,0.00021538,3.143e-05,0.0,0 STARLINK-3856,1 52459U 22049J   23222.67598308  .00003143  00000-0  21538-3 0  9992,2 52459  53.2166 327.9839 0000857  86.1881 273.9209 15.08853958 70194,6917.838,95.437,540.296,539.11,0.0
52459.0,STARLINK-3856,PAYLOAD,2023-08-11 00:10:20,15.08848052,8.04e-05,53.2166,326.4968,85.1997,274.9087,0.00028176,4.2e-05,0.0,0 STARLINK-3856,1 52459U 22049J   23223.00718608  .00004200  00000-0  28176-3 0  9997,2 52459  53.2166 326.4968 0000804  85.1997 274.9087 15.08848052 70240,6917.856,95.437,540.277,539.165,0.0
52459.0,STARLINK-3856,PAYLOAD,2023-08-11 16:04:12,15.08848064,8.37e-05,53.2164,323.5227,85.7344,274.3743,0.00020436,2.967e-05,0.0,0 STARLINK-3856,1 52459U 22049J   23223.66958585  .00002967  00000-0  20436-3 0  9998,2 52459  53.2164 323.5227 0000837  85.7344 274.3743 15.08848064 70349,6917.856,95.437,540.3,539.142,0.0
52459.0,STARLINK-3856,PAYLOAD,2023-08-12 00:01:08,15.08838536,8.59e-05,53.2167,322.0338,103.1001,257.0087,3.1415e-05,2.12e-06,0.0,0 STARLINK-3856,1 52459U 22049J   23224.00078899  .00000212  00000-0  31415-4 0  9999,2 52459  53.2167 322.0338 0000859 103.1001 257.0087 15.08838536 70395,6917.885,95.438,540.344,539.156,0.0
52459.0,STARLINK-3856,PAYLOAD,2023-08-13 12:35:00,15.08841582,7.9e-05,53.2162,315.197,95.6216,264.4867,0.00011275,1.507e-05,0.0,0 STARLINK-3856,1 52459U 22049J   23225.52430991  .00001507  00000-0  11275-3 0  9991,2 52459  53.2162 315.1970 0000790  95.6216 264.4867 15.08841582 70621,6917.876,95.437,540.287,539.194,0.0
52459.0,STARLINK-3856,PAYLOAD,2023-08-15 10:41:11,15.08843735,9.78e-05,53.2168,306.573,91.2751,268.8353,0.00015827,2.232e-05,0.0,0 STARLINK-3856,1 52459U 22049J   23227.44527000  .00002232  00000-0  15827-3 0  9995,2 52459  53.2168 306.5730 0000978  91.2751 268.8353 15.08843735 70911,6917.869,95.437,540.411,539.057,0.0
52459.0,STARLINK-3856,PAYLOAD,2023-08-16 10:31:59,15.08830534,0.0001135,53.2192,302.1181,84.3068,275.8054,0.00017633,2.519e-05,0.0,0 STARLINK-3856,1 52459U 22049J   23228.43887862  .00002519  00000-0  17633-3 0  9995,2 52459  53.2192 302.1181 0001135  84.3068 275.8054 15.08830534 71066,6917.909,95.438,540.56,538.989,0.0
52459.0,STARLINK-3856,PAYLOAD,2023-08-17 10:22:45,15.08843065,0.0001167,53.2158,297.6526,91.3181,268.7945,6.2218e-05,7.03e-06,0.0,0 STARLINK-3856,1 52459U 22049J   23229.43247188  .00000703  00000-0  62218-4 0  9990,2 52459  53.2158 297.6526 0001167  91.3181 268.7945 15.08843065 71218,6917.871,95.437,540.543,538.929,0.0
52459.0,STARLINK-3856,PAYLOAD,2023-08-18 03:52:00,15.08835173,0.0001228,53.2156,294.3823,92.778,267.3352,0.00010426,1.372e-05,0.0,0 STARLINK-3856,1 52459U 22049J   23230.16111728  .00001372  00000-0  10426-3 0  9998,2 52459  53.2156 294.3823 0001228  92.7780 267.3352 15.08835173 71328,6917.895,95.438,540.61,538.911,0.0
52459.0,STARLINK-3856,PAYLOAD,2023-08-19 11:39:42,15.08847175,0.0001208,53.216,288.4351,90.5963,269.5167,0.00016776,2.384e-05,0.0,0 STARLINK-3856,1 52459U 22049J   23231.48591292  .00002384  00000-0  16776-3 0  9990,2 52459  53.2160 288.4351 0001208  90.5963 269.5167 15.08847175 71525,6917.858,95.437,540.559,538.888,0.0
52459.0,STARLINK-3856,PAYLOAD,2023-08-20 03:33:34,15.08838182,0.0001239,53.2162,285.4616,94.5791,265.5343,9.753e-05,1.265e-05,0.0,0 STARLINK-3856,1 52459U 22049J   23232.14831863  .00001265  00000-0  97530-4 0  9990,2 52459  53.2162 285.4616 0001239  94.5791 265.5343 15.08838182 71626,6917.886,95.438,540.608,538.894,0.0
52459.0,STARLINK-3856,PAYLOAD,2023-08-21 09:45:54,15.08844951,0.0001237,53.2167,279.8112,91.242,268.8714,6.491e-05,7.45e-06,0.0,0 STARLINK-3856,1 52459U 22049J   23233.40687606  .00000745  00000-0  64910-4 0  9992,2 52459  53.2167 279.8112 0001237  91.2420 268.8714 15.08844951 71810,6917.865,95.437,540.586,538.875,0.0
